#dP2018  4 15  0  0  0.00000000      96 __u+U ITR00 FIT  IAC
## 1997      0.00000000   900.00000000 58223 0.0000000000000
+   86   C01C02C03C04C05C06C07C08C09C10C11C12C13C14E01E02E03
+        E04E05E07E08E09E11E12E14E18E19E24E26E30G01G02G03G05
+        G06G07G08G09G10G11G12G13G14G15G16G17G18G19G20G21G22
+        G23G24G25G26G27G28G29G30G31G32J02J03R01R02R03R04R05
+        R07R08R09R10R11R13R14R15R16R17R18R19R20R21R22R23R24
+        R26  0  0  0  0  0  0  0  0  0  0  0  0  0  0  0  0
++        12 12 12 12 12  9  9  9  8  8  8  8  8  8  6  6  6
++         7  6  6  6  7  7  6  7  6  6  7  6  6  3  4  3  4
++         3  4  3  3  4  3  5  4  3  4  3  3  4  3  4  4  3
++         3  4  3  3  4  3  4  5  3  3  0 11  5  5  5  5  6
++         5  9  5  5  5  5  5  6  5  5  5  5  5  5  5  5  6
++         9  0  0  0  0  0  0  0  0  0  0  0  0  0  0  0  0
%c M  cc GPS ccc cccc cccc cccc cccc ccccc ccccc ccccc ccccc
%c cc cc ccc ccc cccc cccc cccc cccc ccccc ccccc ccccc ccccc
%f  0.0000000  0.000000000  0.00000000000  0.000000000000000
%f  0.0000000  0.000000000  0.00000000000  0.000000000000000
%i    0    0    0    0      0      0      0      0         0
%i    0    0    0    0      0      0      0      0         0
/* INFORMATION & ANALYSIS CENTER (IAC) OF MCC   (RAPID DATA)
/* S/V CLOCKS ARE ALIGNED TO GPS & GLONASS TIME RESPECTIVELY
/* USING THE BROADCAST EPHEMERIS                            
/* PCV:IGS14_1992 OL/AL:FES2004  NONE     YN ORB:CoN CLK:CoN
*  2018 04 15  1 15  0.00000000
PC01 -32313.326065  27099.734190     78.326304    612.668438
PC02   4381.641892  41924.361300   -875.663537    605.072675
PC03 -14729.750739  39462.333504   -627.745882   -441.106390
PC04 -39615.440737  14422.472778   -242.720509    -33.553432
PC05  21931.001782  35984.293521   -999.180570     56.737803
PC06 -23803.651959  29692.946996  18053.130148    839.907274
PC07 -10560.765681  37249.968214  17306.039619    188.678820
PC08 -12151.878003  18641.231977 -35743.796058    286.322133
PC09  -8553.290613  28819.552525  29599.001200   -219.751972
PC10  -1097.223245  41948.383552   5855.640512   -158.361282
PC11  18036.624277  12210.323359 -17349.255728   -468.425174
PC12  -3375.174594  15255.017260 -23071.249333    415.270052
PC13   3583.940460  26535.704210 -32481.807533   -289.257579
PC14   7179.358511  16808.177453  21132.253428    397.410620
PE01 -10788.760247  18518.669068  20410.465196   -321.873576
PE02  10782.572287 -18542.862006 -20407.553318     10.630580
PE03  22291.127257 -19341.967364  -2215.755939    -21.105300
PE04  -6871.250835  22034.458105  18537.068139    -14.596559
PE05  24691.318290  -5307.836916  15447.324225    284.370056
PE07 -12634.737626 -11792.178232 -24020.289723     50.129542
PE08   6756.021267 -22015.770346 -18585.608146   6604.194502
PE09  12609.521730  11613.608335  24140.976737   6819.835446
PE11  22653.350789  16182.853597 -10093.483309   1835.266739
PE12   3671.443439  18139.491524 -23098.259056   3939.525932
PE14  -5622.615588  20523.336422 -23402.393101   6598.959902
PE18  14149.270447 -14424.974833  14674.307838   6281.602239
PE19 -23085.286603  18514.496415    431.229557     21.344545
PE24  12587.144487  22687.681151 -14247.326705   6758.732379
PE26 -27965.540674  -5089.779857  -8244.026686   6049.241021
PE30  -1216.332470 -29264.834930  -4323.115760   5919.853634
PG01  21265.057368  11561.140056  11133.959111    -40.776846
PG02 -12191.003046 -21661.626060  10263.972222    144.393917
PG03  14698.751742   3920.669576  21754.479419     50.759929
PG05  -4364.050407 -22079.611355 -14036.692315     -9.873393
PG06     42.305155 -18710.374267  18875.644243    408.787503
PG07  16591.135486  -3063.452820 -20408.713033    207.380814
PG08  20179.091214   6330.103707 -16105.772214    -97.872323
PG09  25084.834360  -8317.949286  -2752.167577    511.158717
PG10 -10882.593628  23517.735208  -5395.126658    178.926004
PG11  24859.021435   8811.421679   1796.046861   -737.423070
PG12 -12808.001281  -7194.770928  21951.505186    339.539240
PG13 -11087.496790 -12895.859201 -20512.831934    -95.106615
PG14  -4395.045310  15691.015351  21232.246472    -96.154097
PG15 -21057.234040  -5466.483346 -15700.486505   -355.453598
PG16   1742.444408  22020.014218 -14578.097816     27.665214
PG17  13446.568064 -14657.939136  17923.124442   -106.885484
PG18  20207.575216  17130.601332   2546.867409     -3.062419
PG19   7190.029229 -14892.842805  20543.015766   -443.623900
PG20 -16430.880217   3746.752577 -20664.412101    505.801478
PG21 -14027.284194   7221.628966 -20567.984136   -407.320211
PG22  12417.605691  12784.807072  19938.466237   -358.178828
PG23  24952.373135   1098.058584   9911.170901   -217.953818
PG24 -21750.550668 -13383.226105   7693.839416    -48.546480
PG25 -16098.297202   8179.374138  19214.313843   -569.727925
PG26  -4058.740424  25819.999873  -4306.138583   -182.410231
PG27   7183.089078  13424.567157 -21858.494346    370.215526
PG28  13615.473787 -21433.521835  -7239.616972    706.369498
PG29 -26175.752702   4437.457553    223.717637    466.122982
PG30   9949.202784 -12187.227613 -21386.240308     84.630666
PG31    500.799859  19383.671620  17996.818252    128.428814
PG32 -14189.804080  15351.471140  16367.203842   -520.532068
PJ02      0.000000      0.000000      0.000000 999999.999999
PJ03 -35549.990672  20037.896152  -5941.369651    -16.170724
PR01  -3855.686518  17582.525876  18085.945722     24.827935
PR02  11655.201011   3033.726308  22532.651402    304.881017
PR03  18842.135061 -11966.194604  12426.740598    129.473812
PR04  14753.516133 -20115.182528  -5347.129372    257.192270
PR05   2374.781050 -16704.884788 -19131.062924   -283.352419
PR07 -18845.310142  12268.762694 -11972.165383    -35.158377
PR08 -15063.301857  20022.664852   4830.205955    -13.810942
PR09 -12709.056343 -15530.572133  15715.820508     34.565361
PR10 -10468.530339   2149.073628  23132.709240     22.518669
PR11  -2444.738886  19122.644879  16734.395582    -26.460481
PR13  12867.674891  15096.448016 -16063.084870     -9.440601
PR14  10808.076753  -1921.754719 -23019.710199     26.343257
PR15   4256.252610 -16239.495455 -19243.999791     -8.768194
PR16  -7300.826731 -24455.524193  -1581.068086     90.250481
PR17  23583.354740    680.933089   9675.700446    124.777417
PR18  11608.021771  -7472.080345  21482.585114    191.929171
PR19  -7046.049989 -11727.848271  21529.455730    -50.034177
PR20 -22408.997185  -9164.436002   7949.253871   -334.390035
PR21 -23493.356636   -551.691983  -9936.275795     20.767631
PR22  -9472.065289   8195.629670 -22189.274795    -34.957833
PR23  10988.836001  11703.103605 -19831.225399    147.773896
PR24  22980.586729   8501.176809  -7155.816408   -165.015111
PR26 -22370.482072  -8926.111728   8436.481455     12.675641
EOF
